COMMENT,ORIGINATOR,NORAD_CAT_ID,OBJECT_NAME,OBJECT_TYPE,CLASSIFICATION_TYPE,INTLDES,EPOCH,EPOCH_MICROSECONDS,MEAN_MOTION,ECCENTRICITY,INCLINATION,RA_OF_ASC_NODE,ARG_OF_PERICENTER,MEAN_ANOMALY,EPHEMERIS_TYPE,ELEMENT_SET_NO,REV_AT_EPOCH,BSTAR,MEAN_MOTION_DOT,MEAN_MOTION_DDOT,FILE,TLE_LINE0,TLE_LINE1,TLE_LINE2,OBJECT_ID,OBJECT_NUMBER,SEMIMAJOR_AXIS,PERIOD,APOGEE,PERIGEE,DECAYED
"GENERATED VIA SPACETRACK.ORG API","18 SPCS","48904","SPACEBEE-111","PAYLOAD","U","21059AB","2023-09-25 08:57:12","20256","15.43348985","0.0006529","97.6069","50.2049","266.4207","93.6294","0","999","12486","0.0029242","0.00132454","0","4016340","0 SPACEBEE-111","1 48904U 21059AB  23268.37305579  .00132454  00000-0  29242-2 0  9992","2 48904  97.6069  50.2049 0006529 266.4207  93.6294 15.43348985124867","2021-059AB","48904","6814.371","93.304","440.685","431.786","1"
"GENERATED VIA SPACETRACK.ORG API","18 SPCS","48904","SPACEBEE-111","PAYLOAD","U","21059AB","2023-09-25 21:24:05","840064","15.43430906","0.0006544","97.6069","50.7472","265.5926","94.4574","0","999","12494","0.0019195","0.00086643","0","4016730","0 SPACEBEE-111","1 48904U 21059AB  23268.89173426  .00086643  00000-0  19195-2 0  9997","2 48904  97.6069  50.7472 0006544 265.5926  94.4574 15.43430906124941","2021-059AB","48904","6814.129","93.299","440.454","431.535","1"
"GENERATED VIA SPACETRACK.ORG API","18 SPCS","48904","SPACEBEE-111","PAYLOAD","U","21059AB","2023-09-25 22:57:27","391392","15.43439628","0.0006534","97.6067","50.8147","265.2037","94.8464","0","999","12495","0.0018447","0.00083251","0","4016865","0 SPACEBEE-111","1 48904U 21059AB  23268.95656703  .00083251  00000-0  18447-2 0  9999","2 48904  97.6067  50.8147 0006534 265.2037  94.8464 15.43439628124951","2021-059AB","48904","6814.104","93.298","440.421","431.516","1"
"GENERATED VIA SPACETRACK.ORG API","18 SPCS","48904","SPACEBEE-111","PAYLOAD","U","21059AB","2023-09-26 08:17:35","765376","15.43505806","0.0006466","97.6068","51.2209","263.9096","96.1415","0","999","12501","0.0016404","0.00074097","0","4017272","0 SPACEBEE-111","1 48904U 21059AB  23269.34555284  .00074097  00000-0  16404-2 0  9994","2 48904  97.6068  51.2209 0006466 263.9096  96.1415 15.43505806125011","2021-059AB","48904","6813.909","93.294","440.180","431.368","1"
"GENERATED VIA SPACETRACK.ORG API","18 SPCS","48904","SPACEBEE-111","PAYLOAD","U","21059AB","2023-09-26 20:44:24","538560","15.43607018","0.0006408","97.6069","51.7631","263.2755","96.7763","0","999","12509","0.0021276","0.00096738","0","4017567","0 SPACEBEE-111","1 48904U 21059AB  23269.86417290  .00096738  00000-0  21276-2 0  9994","2 48904  97.6069  51.7631 0006408 263.2755  96.7763 15.43607018125095","2021-059AB","48904","6813.611","93.288","439.842","431.110","1"
"GENERATED VIA SPACETRACK.ORG API","18 SPCS","48904","SPACEBEE-111","PAYLOAD","U","21059AB","2023-09-26 22:17:45","428928","15.43619324","0.0006415","97.6069","51.8308","263.0039","97.0479","0","999","12510","0.0020742","0.00094318","0","4017766","0 SPACEBEE-111","1 48904U 21059AB  23269.92899802  .00094318  00000-0  20742-2 0  9993","2 48904  97.6069  51.8308 0006415 263.0039  97.0479 15.43619324125101","2021-059AB","48904","6813.575","93.287","439.811","431.069","1"
"GENERATED VIA SPACETRACK.ORG API","18 SPCS","48904","SPACEBEE-111","PAYLOAD","U","21059AB","2023-09-27 09:11:10","584960","15.43695587","0.000643","97.607","52.3046","260.9214","99.1306","0","999","12517","0.0017259","0.00078507","0","4018073","0 SPACEBEE-111","1 48904U 21059AB  23270.38276140  .00078507  00000-0  17259-2 0  9990","2 48904  97.6070  52.3046 0006430 260.9214  99.1306 15.43695587125170","2021-059AB","48904","6813.351","93.283","439.597","430.835","1"
"GENERATED VIA SPACETRACK.ORG API","18 SPCS","48904","SPACEBEE-111","PAYLOAD","U","21059AB","2023-09-27 09:11:10","584960","15.43695587","0.000643","97.607","52.3046","260.9214","99.1306","0","999","12517","0.0017259","0.00078507","0","4018203","0 SPACEBEE-111","1 48904U 21059AB  23270.38276140  .00078507  00000-0  17259-2 0  9990","2 48904  97.6070  52.3046 0006430 260.9214  99.1306 15.43695587125170","2021-059AB","48904","6813.351","93.283","439.597","430.835","1"
"GENERATED VIA SPACETRACK.ORG API","18 SPCS","48904","SPACEBEE-111","PAYLOAD","U","21059AB","2023-09-27 23:11:14","668800","15.4377756","0.000649","97.6072","52.9146","260.7481","99.3032","0","999","12526","0.0015903","0.00072476","0","4018657","0 SPACEBEE-111","1 48904U 21059AB  23270.96614200  .00072476  00000-0  15903-2 0  9990","2 48904  97.6072  52.9146 0006490 260.7481  99.3032 15.43777560125269","2021-059AB","48904","6813.109","93.278","439.396","430.553","1"
"GENERATED VIA SPACETRACK.ORG API","18 SPCS","48904","SPACEBEE-111","PAYLOAD","U","21059AB","2023-09-28 08:31:15","760992","15.43835826","0.0006511","97.6074","53.3208","258.3514","101.7002","0","999","12532","0.0014286","0.00065165","0","4019158","0 SPACEBEE-111","1 48904U 21059AB  23271.35504353  .00065165  00000-0  14286-2 0  9991","2 48904  97.6074  53.3208 0006511 258.3514 101.7002 15.43835826125321","2021-059AB","48904","6812.938","93.274","439.239","430.367","1"
"GENERATED VIA SPACETRACK.ORG API","18 SPCS","48904","SPACEBEE-111","PAYLOAD","U","21059AB","2023-09-28 20:57:55","431072","15.43906535","0.0006465","97.6078","53.8633","257.4438","102.6086","0","999","12540","0.001524","0.00069728","0","4019377","0 SPACEBEE-111","1 48904U 21059AB  23271.87355823  .00069728  00000-0  15240-2 0  9994","2 48904  97.6078  53.8633 0006465 257.4438 102.6086 15.43906535125402","2021-059AB","48904","6812.730","93.270","438.999","430.190","1"
"GENERATED VIA SPACETRACK.ORG API","18 SPCS","48904","SPACEBEE-111","PAYLOAD","U","21059AB","2023-09-29 09:24:32","798592","15.43989798","0.0006456","97.6081","54.4052","255.4269","104.6263","0","999","12548","0.0014877","0.00068244","0","4019837","0 SPACEBEE-111","1 48904U 21059AB  23272.39204628  .00068244  00000-0  14877-2 0  9995","2 48904  97.6081  54.4052 0006456 255.4269 104.6263 15.43989798125487","2021-059AB","48904","6812.485","93.265","438.748","429.952","1"
"GENERATED VIA SPACETRACK.ORG API","18 SPCS","48904","SPACEBEE-111","PAYLOAD","U","21059AB","2023-09-29 09:24:32","798592","15.43989798","0.0006456","97.6081","54.4052","255.4269","104.6263","0","999","12548","0.0014877","0.00068244","0","4020020","0 SPACEBEE-111","1 48904U 21059AB  23272.39204628  .00068244  00000-0  14877-2 0  9995","2 48904  97.6081  54.4052 0006456 255.4269 104.6263 15.43989798125487","2021-059AB","48904","6812.485","93.265","438.748","429.952","1"
"GENERATED VIA SPACETRACK.ORG API","18 SPCS","48904","SPACEBEE-111","PAYLOAD","U","21059AB","2023-09-29 21:51:07","685568","15.44080026","0.0006473","97.6081","54.9478","255.0121","105.0411","0","999","12556","0.0017345","0.00079942","0","4020395","0 SPACEBEE-111","1 48904U 21059AB  23272.91050562  .00079942  00000-0  17345-2 0  9999","2 48904  97.6081  54.9478 0006473 255.0121 105.0411 15.44080026125562","2021-059AB","48904","6812.220","93.259","438.494","429.675","1"
"GENERATED VIA SPACETRACK.ORG API","18 SPCS","48904","SPACEBEE-111","PAYLOAD","U","21059AB","2023-09-29 21:51:07","685568","15.44080026","0.0006473","97.6081","54.9478","255.0121","105.0411","0","999","12556","0.0017345","0.00079942","0","4020886","0 SPACEBEE-111","1 48904U 21059AB  23272.91050562  .00079942  00000-0  17345-2 0  9999","2 48904  97.6081  54.9478 0006473 255.0121 105.0411 15.44080026125562","2021-059AB","48904","6812.220","93.259","438.494","429.675","1"
"GENERATED VIA SPACETRACK.ORG API","18 SPCS","48904","SPACEBEE-111","PAYLOAD","U","21059AB","2023-09-30 22:44:09","947904","15.44255298","0.0006499","97.6089","56.0324","252.407","107.6468","0","999","12572","0.0017811","0.00082608","0","4021341","0 SPACEBEE-111","1 48904U 21059AB  23273.94733736  .00082608  00000-0  17811-2 0  9995","2 48904  97.6089  56.0324 0006499 252.4070 107.6468 15.44255298125728","2021-059AB","48904","6811.704","93.249","437.996","429.142","1"
"GENERATED VIA SPACETRACK.ORG API","18 SPCS","48904","SPACEBEE-111","PAYLOAD","U","21059AB","2023-10-01 09:37:18","691392","15.44348858","0.0006442","97.6091","56.5069","250.231","109.8243","0","999","12579","0.0019193","0.00089384","0","4021641","0 SPACEBEE-111","1 48904U 21059AB  23274.40091078  .00089384  00000-0  19193-2 0  9996","2 48904  97.6091  56.5069 0006442 250.2310 109.8243 15.44348858125790","2021-059AB","48904","6811.429","93.243","437.682","428.906","1"
"GENERATED VIA SPACETRACK.ORG API","18 SPCS","48904","SPACEBEE-111","PAYLOAD","U","21059AB","2023-10-01 09:37:18","691392","15.44348858","0.0006442","97.6091","56.5069","250.231","109.8243","0","999","12579","0.0019193","0.00089384","0","4021853","0 SPACEBEE-111","1 48904U 21059AB  23274.40091078  .00089384  00000-0  19193-2 0  9996","2 48904  97.6091  56.5069 0006442 250.2310 109.8243 15.44348858125790","2021-059AB","48904","6811.429","93.243","437.682","428.906","1"
"GENERATED VIA SPACETRACK.ORG API","18 SPCS","48904","SPACEBEE-111","PAYLOAD","U","21059AB","2023-10-01 20:30:25","434720","15.44419629","0.0006397","97.6088","56.9818","249.1947","110.8615","0","999","12586","0.0017718","0.00082633","0","4022139","0 SPACEBEE-111","1 48904U 21059AB  23274.85446105  .00082633  00000-0  17718-2 0  9991","2 48904  97.6088  56.9818 0006397 249.1947 110.8615 15.44419629125862","2021-059AB","48904","6811.221","93.239","437.443","428.729","1"
"GENERATED VIA SPACETRACK.ORG API","18 SPCS","48904","SPACEBEE-111","PAYLOAD","U","21059AB","2023-10-02 08:56:47","696064","15.44518249","0.000642","97.609","57.524","247.4514","112.6055","0","999","12594","0.0018486","0.0008655","0","4023120","0 SPACEBEE-111","1 48904U 21059AB  23275.37277426  .00086550  00000-0  18486-2 0  9992","2 48904  97.6090  57.5240 0006420 247.4514 112.6055 15.44518249125944","2021-059AB","48904","6810.931","93.233","437.169","428.423","1"
